{
    "links": {
        "self": "http://www.neowsapp.com/rest/v1/neo/3180185?api_key=iIulBulltgU6a56xZRHN4H3l9WmuAYTsLGpBGhQ2"
    },
    "id": "3180185",
    "neo_reference_id": "3180185",
    "name": "(2004 HR56)",
    "designation": "2004 HR56",
    "nasa_jpl_url": "http://ssd.jpl.nasa.gov/sbdb.cgi?sstr=3180185",
    "absolute_magnitude_h": 23.3,
    "estimated_diameter": {
        "kilometers": {
            "estimated_diameter_min": 0.058150704,
            "estimated_diameter_max": 0.130028927
        },
        "meters": {
            "estimated_diameter_min": 58.1507039646,
            "estimated_diameter_max": 130.0289270043
        },
        "miles": {
            "estimated_diameter_min": 0.0361331611,
            "estimated_diameter_max": 0.0807962044
        },
        "feet": {
            "estimated_diameter_min": 190.7831555951,
            "estimated_diameter_max": 426.6041048727
        }
    },
    "is_potentially_hazardous_asteroid": false,
    "close_approach_data": [
        {
            "close_approach_date": "2004-03-05",
            "close_approach_date_full": "2004-Mar-05 15:47",
            "epoch_date_close_approach": 1078501620000,
            "relative_velocity": {
                "kilometers_per_second": "7.6127961485",
                "kilometers_per_hour": "27406.066134723",
                "miles_per_hour": "17029.0637046561"
            },
            "miss_distance": {
                "astronomical": "0.1141234844",
                "lunar": "44.3940354316",
                "kilometers": "17072630.183218228",
                "miles": "10608440.4759304264"
            },
            "orbiting_body": "Earth"
        }
    ],
    "orbital_data": {
        "orbit_id": "6",
        "orbit_determination_date": "2017-04-06 09:12:50",
        "first_observation_date": "2004-04-25",
        "last_observation_date": "2004-04-28",
        "data_arc_in_days": 3,
        "observations_used": 9,
        "orbit_uncertainty": "9",
        "minimum_orbit_intersection": ".0601316",
        "jupiter_tisserand_invariant": "4.324",
        "epoch_osculation": "2453121.5",
        "eccentricity": ".4359279712036009",
        "semi_major_axis": "1.555192748881361",
        "inclination": "5.972564984726493",
        "ascending_node_longitude": "41.10224708923827",
        "orbital_period": "708.3938153075128",
        "perihelion_distance": ".8772407290309585",
        "perihelion_argument": "87.89478917419687",
        "aphelion_distance": "2.233144768731764",
        "perihelion_time": "2453040.737260856623",
        "mean_anomaly": "41.04296997425716",
        "mean_motion": ".50819190148311",
        "equinox": "J2000",
        "orbit_class": {
            "orbit_class_type": "APO",
            "orbit_class_description": "Near-Earth asteroid orbits which cross the Earth’s orbit similar to that of 1862 Apollo",
            "orbit_class_range": "a (semi-major axis) > 1.0 AU; q (perihelion) < 1.017 AU"
        }
    },
    "is_sentry_object": false
}